SENTINEL-2B             
1 42063U 17013A   25331.66895688  .00000180  00000+0  85446-4 0  9996
2 42063  98.5643  44.3254 0001131 103.5348 256.5961 14.30826294455821
CARTOSAT-2E             
1 42767U 17036C   25334.85985234  .00005654  00000+0  27100-3 0  9996
2 42767  97.4579  32.6004 0002742 284.3065  75.7865 15.19310683468033
FORMOSAT-5              
1 42920U 17049A   25334.77424890  .00000240  00000+0  71719-4 0  9990
2 42920  98.2465  49.3300 0010468 335.2234  24.8457 14.50993437437901
SENTINEL-5P             
1 42969U 17064A   25334.85465934  .00000098  00000+0  67312-4 0  9998
2 42969  98.7766 273.5452 0000954  85.1804 274.9481 14.19512569421428
SKYSAT-C11              
1 42987U 17068A   25334.84296347  .00021690  00000+0  43523-3 0  9999
2 42987  97.4131 112.0474 0000846 121.0616 239.0717 15.46706839452471
SKYSAT-C10              
1 42988U 17068B   25334.77619779  .00012747  00000+0  41586-3 0  9990
2 42988  97.4250 105.5969 0005406 128.0060 232.1671 15.31910936451962
SKYSAT-C9               
1 42989U 17068C   25334.76885924  .00014758  00000+0  42803-3 0  9994
2 42989  97.4177 104.9332 0010603 126.7610 233.4608 15.35576656452246
SKYSAT-C8               
1 42990U 17068D   25334.81526477  .00012502  00000+0  40045-3 0  9998
2 42990  97.4266 104.7675 0002312  27.2986 332.8377 15.32516447451889
