{
  "type": "FeatureCollection",
  "features": [
    {
      "type": "Feature",
      "properties": {
        "norad_id": 42063,
        "name": "SENTINEL-2B",
        "group": "resource",
        "lat": NaN,
        "lon": NaN,
        "alt_km": NaN,
        "timestamp": "2025-12-01T03:03:40.644515+00:00",
        "meta": {
          "OBJECT_NAME": "SENTINEL-2B",
          "OBJECT_ID": "2017-013A",
          "EPOCH": "2025-11-27T16:03:17.874432",
          "MEAN_MOTION": 14.30826294,
          "ECCENTRICITY": 0.00011314,
          "INCLINATION": 98.5643,
          "RA_OF_ASC_NODE": 44.3254,
          "ARG_OF_PERICENTER": 103.5348,
          "MEAN_ANOMALY": 256.5961,
          "EPHEMERIS_TYPE": 0,
          "CLASSIFICATION_TYPE": "U",
          "NORAD_CAT_ID": 42063,
          "ELEMENT_SET_NO": 999,
          "REV_AT_EPOCH": 45582,
          "BSTAR": 8.5446015e-05,
          "MEAN_MOTION_DOT": 1.8e-06,
          "MEAN_MOTION_DDOT": 0
        }
      },
      "geometry": {
        "type": "Point",
        "coordinates": [
          NaN,
          NaN
        ]
      }
    },
    {
      "type": "Feature",
      "properties": {
        "norad_id": 42767,
        "name": "CARTOSAT-2E",
        "group": "resource",
        "lat": NaN,
        "lon": NaN,
        "alt_km": NaN,
        "timestamp": "2025-12-01T03:03:40.644522+00:00",
        "meta": {
          "OBJECT_NAME": "CARTOSAT-2E",
          "OBJECT_ID": "2017-036C",
          "EPOCH": "2025-11-30T20:38:11.242176",
          "MEAN_MOTION": 15.19310683,
          "ECCENTRICITY": 0.0002742,
          "INCLINATION": 97.4579,
          "RA_OF_ASC_NODE": 32.6004,
          "ARG_OF_PERICENTER": 284.3065,
          "MEAN_ANOMALY": 75.7865,
          "EPHEMERIS_TYPE": 0,
          "CLASSIFICATION_TYPE": "U",
          "NORAD_CAT_ID": 42767,
          "ELEMENT_SET_NO": 999,
          "REV_AT_EPOCH": 46803,
          "BSTAR": 0.000271,
          "MEAN_MOTION_DOT": 5.654e-05,
          "MEAN_MOTION_DDOT": 0
        }
      },
      "geometry": {
        "type": "Point",
        "coordinates": [
          NaN,
          NaN
        ]
      }
    },
    {
      "type": "Feature",
      "properties": {
        "norad_id": 42920,
        "name": "FORMOSAT-5",
        "group": "resource",
        "lat": NaN,
        "lon": NaN,
        "alt_km": NaN,
        "timestamp": "2025-12-01T03:03:40.644531+00:00",
        "meta": {
          "OBJECT_NAME": "FORMOSAT-5",
          "OBJECT_ID": "2017-049A",
          "EPOCH": "2025-11-30T18:34:55.104960",
          "MEAN_MOTION": 14.50993437,
          "ECCENTRICITY": 0.0010468,
          "INCLINATION": 98.2465,
          "RA_OF_ASC_NODE": 49.33,
          "ARG_OF_PERICENTER": 335.2234,
          "MEAN_ANOMALY": 24.8457,
          "EPHEMERIS_TYPE": 0,
          "CLASSIFICATION_TYPE": "U",
          "NORAD_CAT_ID": 42920,
          "ELEMENT_SET_NO": 999,
          "REV_AT_EPOCH": 43790,
          "BSTAR": 7.1719e-05,
          "MEAN_MOTION_DOT": 2.4e-06,
          "MEAN_MOTION_DDOT": 0
        }
      },
      "geometry": {
        "type": "Point",
        "coordinates": [
          NaN,
          NaN
        ]
      }
    },
    {
      "type": "Feature",
      "properties": {
        "norad_id": 42969,
        "name": "SENTINEL-5P",
        "group": "resource",
        "lat": NaN,
        "lon": NaN,
        "alt_km": NaN,
        "timestamp": "2025-12-01T03:03:40.644539+00:00",
        "meta": {
          "OBJECT_NAME": "SENTINEL-5P",
          "OBJECT_ID": "2017-064A",
          "EPOCH": "2025-11-30T20:30:42.566976",
          "MEAN_MOTION": 14.19512569,
          "ECCENTRICITY": 9.54e-05,
          "INCLINATION": 98.7766,
          "RA_OF_ASC_NODE": 273.5452,
          "ARG_OF_PERICENTER": 85.1804,
          "MEAN_ANOMALY": 274.9481,
          "EPHEMERIS_TYPE": 0,
          "CLASSIFICATION_TYPE": "U",
          "NORAD_CAT_ID": 42969,
          "ELEMENT_SET_NO": 999,
          "REV_AT_EPOCH": 42142,
          "BSTAR": 6.7312e-05,
          "MEAN_MOTION_DOT": 9.8e-07,
          "MEAN_MOTION_DDOT": 0
        }
      },
      "geometry": {
        "type": "Point",
        "coordinates": [
          NaN,
          NaN
        ]
      }
    },
    {
      "type": "Feature",
      "properties": {
        "norad_id": 42987,
        "name": "SKYSAT-C11",
        "group": "resource",
        "lat": NaN,
        "lon": NaN,
        "alt_km": NaN,
        "timestamp": "2025-12-01T03:03:40.644545+00:00",
        "meta": {
          "OBJECT_NAME": "SKYSAT-C11",
          "OBJECT_ID": "2017-068A",
          "EPOCH": "2025-11-30T20:13:52.043808",
          "MEAN_MOTION": 15.46706839,
          "ECCENTRICITY": 8.46e-05,
          "INCLINATION": 97.4131,
          "RA_OF_ASC_NODE": 112.0474,
          "ARG_OF_PERICENTER": 121.0616,
          "MEAN_ANOMALY": 239.0717,
          "EPHEMERIS_TYPE": 0,
          "CLASSIFICATION_TYPE": "U",
          "NORAD_CAT_ID": 42987,
          "ELEMENT_SET_NO": 999,
          "REV_AT_EPOCH": 45247,
          "BSTAR": 0.00043523,
          "MEAN_MOTION_DOT": 0.0002169,
          "MEAN_MOTION_DDOT": 0
        }
      },
      "geometry": {
        "type": "Point",
        "coordinates": [
          NaN,
          NaN
        ]
      }
    },
    {
      "type": "Feature",
      "properties": {
        "norad_id": 42988,
        "name": "SKYSAT-C10",
        "group": "resource",
        "lat": NaN,
        "lon": NaN,
        "alt_km": NaN,
        "timestamp": "2025-12-01T03:03:40.644551+00:00",
        "meta": {
          "OBJECT_NAME": "SKYSAT-C10",
          "OBJECT_ID": "2017-068B",
          "EPOCH": "2025-11-30T18:37:43.489056",
          "MEAN_MOTION": 15.31910936,
          "ECCENTRICITY": 0.0005406,
          "INCLINATION": 97.425,
          "RA_OF_ASC_NODE": 105.5969,
          "ARG_OF_PERICENTER": 128.006,
          "MEAN_ANOMALY": 232.1671,
          "EPHEMERIS_TYPE": 0,
          "CLASSIFICATION_TYPE": "U",
          "NORAD_CAT_ID": 42988,
          "ELEMENT_SET_NO": 999,
          "REV_AT_EPOCH": 45196,
          "BSTAR": 0.00041586,
          "MEAN_MOTION_DOT": 0.00012747,
          "MEAN_MOTION_DDOT": 0
        }
      },
      "geometry": {
        "type": "Point",
        "coordinates": [
          NaN,
          NaN
        ]
      }
    },
    {
      "type": "Feature",
      "properties": {
        "norad_id": 42989,
        "name": "SKYSAT-C9",
        "group": "resource",
        "lat": NaN,
        "lon": NaN,
        "alt_km": NaN,
        "timestamp": "2025-12-01T03:03:40.644556+00:00",
        "meta": {
          "OBJECT_NAME": "SKYSAT-C9",
          "OBJECT_ID": "2017-068C",
          "EPOCH": "2025-11-30T18:27:09.438336",
          "MEAN_MOTION": 15.35576656,
          "ECCENTRICITY": 0.0010603,
          "INCLINATION": 97.4177,
          "RA_OF_ASC_NODE": 104.9332,
          "ARG_OF_PERICENTER": 126.761,
          "MEAN_ANOMALY": 233.4608,
          "EPHEMERIS_TYPE": 0,
          "CLASSIFICATION_TYPE": "U",
          "NORAD_CAT_ID": 42989,
          "ELEMENT_SET_NO": 999,
          "REV_AT_EPOCH": 45224,
          "BSTAR": 0.00042803,
          "MEAN_MOTION_DOT": 0.00014758,
          "MEAN_MOTION_DDOT": 0
        }
      },
      "geometry": {
        "type": "Point",
        "coordinates": [
          NaN,
          NaN
        ]
      }
    },
    {
      "type": "Feature",
      "properties": {
        "norad_id": 42990,
        "name": "SKYSAT-C8",
        "group": "resource",
        "lat": NaN,
        "lon": NaN,
        "alt_km": NaN,
        "timestamp": "2025-12-01T03:03:40.644562+00:00",
        "meta": {
          "OBJECT_NAME": "SKYSAT-C8",
          "OBJECT_ID": "2017-068D",
          "EPOCH": "2025-11-30T19:33:58.876128",
          "MEAN_MOTION": 15.32516447,
          "ECCENTRICITY": 0.0002312,
          "INCLINATION": 97.4266,
          "RA_OF_ASC_NODE": 104.7675,
          "ARG_OF_PERICENTER": 27.2986,
          "MEAN_ANOMALY": 332.8377,
          "EPHEMERIS_TYPE": 0,
          "CLASSIFICATION_TYPE": "U",
          "NORAD_CAT_ID": 42990,
          "ELEMENT_SET_NO": 999,
          "REV_AT_EPOCH": 45188,
          "BSTAR": 0.00040045,
          "MEAN_MOTION_DOT": 0.00012502,
          "MEAN_MOTION_DDOT": 0
        }
      },
      "geometry": {
        "type": "Point",
        "coordinates": [
          NaN,
          NaN
        ]
      }
    }
  ]
}